[{"OBJECT_NAME":"SHIYAN-24C 02","OBJECT_ID":"2023-206B","EPOCH":"2026-03-09T21:24:07.715808","MEAN_MOTION":14.97980163,"ECCENTRICITY":0.0003465,"INCLINATION":97.3985,"RA_OF_ASC_NODE":41.8071,"ARG_OF_PERICENTER":80.6641,"MEAN_ANOMALY":279.4974,"EPHEMERIS_TYPE":0,"CLASSIFICATION_TYPE":"U","NORAD_CAT_ID":58651,"ELEMENT_SET_NO":999,"REV_AT_EPOCH":12044,"BSTAR":0.00023935,"MEAN_MOTION_DOT":2.77e-5,"MEAN_MOTION_DDOT":0},{"OBJECT_NAME":"STARLINK-34476","OBJECT_ID":"2025-126W","EPOCH":"2026-03-09T07:02:54.976704","MEAN_MOTION":14.98335488,"ECCENTRICITY":0.00029515,"INCLINATION":70.0025,"RA_OF_ASC_NODE":35.4114,"ARG_OF_PERICENTER":270.6697,"MEAN_ANOMALY":89.4123,"EPHEMERIS_TYPE":0,"CLASSIFICATION_TYPE":"U","NORAD_CAT_ID":64364,"ELEMENT_SET_NO":999,"REV_AT_EPOCH":4062,"BSTAR":0.00054138655,"MEAN_MOTION_DOT":6.374e-5,"MEAN_MOTION_DDOT":0}]
